STARLINK-1279_new
1 15360C 20019A   21326.15243843 -.00000013  00000-0 -88989-6 0  3262
2 15360  53.0539 338.0571 0001661  59.9999 229.4348 15.06391114    10
STARLINK-1279_old
1 25360C 20019A   21325.12168813 -.00001511  00000-0 -10130-3 0  3254
2 25360  53.0538 342.6845 0001577  61.5460  35.0596 15.06383026    11
